start=new Date('2021-12-17T00:00:00.000Z').valueOf();
sats=[{"LAUNCH_DATE":"2020-10-18","EPHEMERIS_TYPE":"0","TLE_LINE1":"1 46671U 20073B   21350.69167495  .00000188  00000-0  31526-4 0  9992","FILE":"3242223","PERIOD":"95.592","TIME_SYSTEM":"UTC","CENTER_NAME":"EARTH","APOAPSIS":"548.425","RCS_SIZE":"LARGE","GP_ID":"191861054","ECCENTRICITY":"0.00017590","ARG_OF_PERICENTER":"62.0118","EPOCH":"2021-12-16T16:36:00.715680","PERIAPSIS":"545.989","RA_OF_ASC_NODE":"337.8967","SEMIMAJOR_AXIS":"6925.342","OBJECT_TYPE":"PAYLOAD","MEAN_MOTION_DOT":"0.00000188","MEAN_ELEMENT_THEORY":"SGP4","NORAD_CAT_ID":"46671","MEAN_MOTION_DDOT":"0.0000000000000","DECAY_DATE":null,"SITE":"AFETR","MEAN_MOTION":"15.06402125","BSTAR":"0.00003152600000","OBJECT_NAME":"STARLINK-1715","ELEMENT_SET_NO":"999","MEAN_ANOMALY":"298.1049","REV_AT_EPOCH":"6434","COUNTRY_CODE":"US","INCLINATION":"53.0561","OBJECT_ID":"2020-073B","CLASSIFICATION_TYPE":"U","TLE_LINE2":"2 46671  53.0561 337.8967 0001759  62.0118 298.1049 15.06402125 64345","REF_FRAME":"TEME"},{"EPOCH":"2021-12-16T15:58:13.934784","ARG_OF_PERICENTER":"67.6034","PERIAPSIS":"545.966","ECCENTRICITY":"0.00018280","GP_ID":"191861804","TIME_SYSTEM":"UTC","CENTER_NAME":"EARTH","APOAPSIS":"548.498","RCS_SIZE":"LARGE","LAUNCH_DATE":"2020-10-18","EPHEMERIS_TYPE":"0","TLE_LINE1":"1 46672U 20073C   21350.66543906  .00000486  00000-0  51523-4 0  9995","FILE":"3242223","PERIOD":"95.593","COUNTRY_CODE":"US","INCLINATION":"53.0553","CLASSIFICATION_TYPE":"U","OBJECT_ID":"2020-073C","TLE_LINE2":"2 46672  53.0553 333.0068 0001828  67.6034 292.5148 15.06393968 64412","REF_FRAME":"TEME","ELEMENT_SET_NO":"999","MEAN_ANOMALY":"292.5148","REV_AT_EPOCH":"6441","MEAN_MOTION_DDOT":"0.0000000000000","DECAY_DATE":null,"SITE":"AFETR","MEAN_MOTION":"15.06393968","BSTAR":"0.00005152300000","OBJECT_NAME":"STARLINK-1716","RA_OF_ASC_NODE":"333.0068","SEMIMAJOR_AXIS":"6925.367","OBJECT_TYPE":"PAYLOAD","MEAN_ELEMENT_THEORY":"SGP4","MEAN_MOTION_DOT":"0.00000486","NORAD_CAT_ID":"46672"},{"PERIOD":"95.593","FILE":"3242223","TLE_LINE1":"1 46673U 20073D   21350.70181495 -.00000089  00000-0  12938-4 0  9999","EPHEMERIS_TYPE":"0","LAUNCH_DATE":"2020-10-18","TIME_SYSTEM":"UTC","APOAPSIS":"548.514","RCS_SIZE":"LARGE","CENTER_NAME":"EARTH","GP_ID":"191860552","ECCENTRICITY":"0.00018510","PERIAPSIS":"545.950","EPOCH":"2021-12-16T16:50:36.811680","ARG_OF_PERICENTER":"60.9462","SEMIMAJOR_AXIS":"6925.367","RA_OF_ASC_NODE":"347.8573","NORAD_CAT_ID":"46673","MEAN_ELEMENT_THEORY":"SGP4","MEAN_MOTION_DOT":"-0.00000089","OBJECT_TYPE":"PAYLOAD","SITE":"AFETR","MEAN_MOTION":"15.06393965","DECAY_DATE":null,"MEAN_MOTION_DDOT":"0.0000000000000","OBJECT_NAME":"STARLINK-1717","BSTAR":"0.00001293800000","ELEMENT_SET_NO":"999","REV_AT_EPOCH":"6420","MEAN_ANOMALY":"299.1712","INCLINATION":"53.0562","COUNTRY_CODE":"US","TLE_LINE2":"2 46673  53.0562 347.8573 0001851  60.9462 299.1712 15.06393965 64208","REF_FRAME":"TEME","OBJECT_ID":"2020-073D","CLASSIFICATION_TYPE":"U"},{"EPOCH":"2021-12-16T18:10:55.099488","ARG_OF_PERICENTER":"59.5517","PERIAPSIS":"545.939","GP_ID":"191860802","ECCENTRICITY":"0.00018360","RCS_SIZE":"LARGE","APOAPSIS":"548.482","CENTER_NAME":"EARTH","TIME_SYSTEM":"UTC","FILE":"3242223","TLE_LINE1":"1 46674U 20073E   21350.75758217  .00000307  00000-0  39506-4 0  9999","EPHEMERIS_TYPE":"0","LAUNCH_DATE":"2020-10-18","PERIOD":"95.592","CLASSIFICATION_TYPE":"U","OBJECT_ID":"2020-073E","TLE_LINE2":"2 46674  53.0558 332.6035 0001836  59.5517 300.5653 15.06400961 64427","REF_FRAME":"TEME","INCLINATION":"53.0558","COUNTRY_CODE":"US","REV_AT_EPOCH":"6442","MEAN_ANOMALY":"300.5653","ELEMENT_SET_NO":"999","BSTAR":"0.00003950600000","OBJECT_NAME":"STARLINK-1718","MEAN_MOTION_DDOT":"0.0000000000000","SITE":"AFETR","MEAN_MOTION":"15.06400961","DECAY_DATE":null,"OBJECT_TYPE":"PAYLOAD","NORAD_CAT_ID":"46674","MEAN_ELEMENT_THEORY":"SGP4","MEAN_MOTION_DOT":"0.00000307","SEMIMAJOR_AXIS":"6925.346","RA_OF_ASC_NODE":"332.6035"},{"GP_ID":"191861554","ECCENTRICITY":"0.00021910","EPOCH":"2021-12-16T18:05:36.172032","ARG_OF_PERICENTER":"53.9628","PERIAPSIS":"545.682","LAUNCH_DATE":"2020-10-18","TLE_LINE1":"1 46675U 20073F   21350.75389088  .00001625  00000-0  12797-3 0  9992","EPHEMERIS_TYPE":"0","FILE":"3242223","PERIOD":"95.592","TIME_SYSTEM":"UTC","CENTER_NAME":"EARTH","RCS_SIZE":"LARGE","APOAPSIS":"548.717","ELEMENT_SET_NO":"999","MEAN_ANOMALY":"306.1564","REV_AT_EPOCH":"6442","COUNTRY_CODE":"US","INCLINATION":"53.0559","OBJECT_ID":"2020-073F","CLASSIFICATION_TYPE":"U","REF_FRAME":"TEME","TLE_LINE2":"2 46675  53.0559 332.6234 0002191  53.9628 306.1564 15.06404666 64425","RA_OF_ASC_NODE":"332.6234","SEMIMAJOR_AXIS":"6925.334","OBJECT_TYPE":"PAYLOAD","MEAN_ELEMENT_THEORY":"SGP4","MEAN_MOTION_DOT":"0.00001625","NORAD_CAT_ID":"46675","MEAN_MOTION_DDOT":"0.0000000000000","DECAY_DATE":null,"SITE":"AFETR","MEAN_MOTION":"15.06404666","BSTAR":"0.00012797000000","OBJECT_NAME":"STARLINK-1720"},{"PERIAPSIS":"545.872","ARG_OF_PERICENTER":"62.1050","EPOCH":"2021-12-16T22:46:56.308512","ECCENTRICITY":"0.00019360","GP_ID":"191838021","TIME_SYSTEM":"UTC","CENTER_NAME":"EARTH","RCS_SIZE":"LARGE","APOAPSIS":"548.553","PERIOD":"95.592","LAUNCH_DATE":"2020-10-18","EPHEMERIS_TYPE":"0","TLE_LINE1":"1 46677U 20073H   21350.94926283  .00004504  00000-0  32108-3 0  9996","FILE":"3242170","COUNTRY_CODE":"US","INCLINATION":"53.0542","TLE_LINE2":"2 46677  53.0542 331.7442 0001936  62.1050 298.0135 15.06400311 64939","REF_FRAME":"TEME","OBJECT_ID":"2020-073H","CLASSIFICATION_TYPE":"U","ELEMENT_SET_NO":"999","MEAN_ANOMALY":"298.0135","REV_AT_EPOCH":"6493","DECAY_DATE":null,"SITE":"AFETR","MEAN_MOTION":"15.06400311","MEAN_MOTION_DDOT":"0.0000000000000","OBJECT_NAME":"STARLINK-1766","BSTAR":"0.00032108000000","RA_OF_ASC_NODE":"331.7442","SEMIMAJOR_AXIS":"6925.348","MEAN_MOTION_DOT":"0.00004504","MEAN_ELEMENT_THEORY":"SGP4","NORAD_CAT_ID":"46677","OBJECT_TYPE":"PAYLOAD"},{"TIME_SYSTEM":"UTC","CENTER_NAME":"EARTH","RCS_SIZE":"LARGE","APOAPSIS":"548.439","PERIOD":"95.591","LAUNCH_DATE":"2020-10-18","FILE":"3242223","TLE_LINE1":"1 46679U 20073K   21350.88843117  .00004852  00000-0  34428-3 0  9998","EPHEMERIS_TYPE":"0","PERIAPSIS":"545.915","EPOCH":"2021-12-16T21:19:20.453088","ARG_OF_PERICENTER":"47.9139","GP_ID":"191860053","ECCENTRICITY":"0.00018220","DECAY_DATE":null,"SITE":"AFETR","MEAN_MOTION":"15.06411843","MEAN_MOTION_DDOT":"0.0000000000000","OBJECT_NAME":"STARLINK-1773","BSTAR":"0.00034428000000","RA_OF_ASC_NODE":"311.9958","SEMIMAJOR_AXIS":"6925.312","MEAN_ELEMENT_THEORY":"SGP4","MEAN_MOTION_DOT":"0.00004852","NORAD_CAT_ID":"46679","OBJECT_TYPE":"PAYLOAD","COUNTRY_CODE":"US","INCLINATION":"53.0547","REF_FRAME":"TEME","TLE_LINE2":"2 46679  53.0547 311.9958 0001822  47.9139 312.2005 15.06411843 64725","CLASSIFICATION_TYPE":"U","OBJECT_ID":"2020-073K","ELEMENT_SET_NO":"999","MEAN_ANOMALY":"312.2005","REV_AT_EPOCH":"6472"},{"OBJECT_ID":"2020-073L","CLASSIFICATION_TYPE":"U","REF_FRAME":"TEME","TLE_LINE2":"2 46680  53.0551 346.3934 0001818  62.4752 297.6421 15.06395024 64737","COUNTRY_CODE":"US","INCLINATION":"53.0551","MEAN_ANOMALY":"297.6421","REV_AT_EPOCH":"6473","ELEMENT_SET_NO":"999","BSTAR":"0.00001612900000","OBJECT_NAME":"STARLINK-1774","MEAN_MOTION_DDOT":"0.0000000000000","DECAY_DATE":null,"MEAN_MOTION":"15.06395024","SITE":"AFETR","OBJECT_TYPE":"PAYLOAD","MEAN_ELEMENT_THEORY":"SGP4","MEAN_MOTION_DOT":"-0.00000041","NORAD_CAT_ID":"46680","RA_OF_ASC_NODE":"346.3934","SEMIMAJOR_AXIS":"6925.364","ARG_OF_PERICENTER":"62.4752","EPOCH":"2021-12-17T00:33:44.670816","PERIAPSIS":"545.970","ECCENTRICITY":"0.00018180","GP_ID":"191838031","CENTER_NAME":"EARTH","APOAPSIS":"548.488","RCS_SIZE":"LARGE","TIME_SYSTEM":"UTC","LAUNCH_DATE":"2020-10-18","FILE":"3242171","TLE_LINE1":"1 46680U 20073L   21351.02343369 -.00000041  00000-0  16129-4 0  9997","EPHEMERIS_TYPE":"0","PERIOD":"95.592"},{"TIME_SYSTEM":"UTC","CENTER_NAME":"EARTH","APOAPSIS":"548.422","RCS_SIZE":"LARGE","LAUNCH_DATE":"2020-10-18","TLE_LINE1":"1 46681U 20073M   21350.99393602  .00001438  00000-0  11537-3 0  9995","EPHEMERIS_TYPE":"0","FILE":"3242173","PERIOD":"95.592","EPOCH":"2021-12-16T23:51:16.072128","ARG_OF_PERICENTER":"51.8293","PERIAPSIS":"545.966","GP_ID":"191838091","ECCENTRICITY":"0.00017730","MEAN_MOTION_DDOT":"0.0000000000000","DECAY_DATE":null,"SITE":"AFETR","MEAN_MOTION":"15.06406451","BSTAR":"0.00011537000000","OBJECT_NAME":"STARLINK-1775","RA_OF_ASC_NODE":"346.5465","SEMIMAJOR_AXIS":"6925.329","OBJECT_TYPE":"PAYLOAD","MEAN_MOTION_DOT":"0.00001438","MEAN_ELEMENT_THEORY":"SGP4","NORAD_CAT_ID":"46681","COUNTRY_CODE":"US","INCLINATION":"53.0550","CLASSIFICATION_TYPE":"U","OBJECT_ID":"2020-073M","REF_FRAME":"TEME","TLE_LINE2":"2 46681  53.0550 346.5465 0001773  51.8293 308.2855 15.06406451 64726","ELEMENT_SET_NO":"999","MEAN_ANOMALY":"308.2855","REV_AT_EPOCH":"6472"},{"FILE":"3242177","TLE_LINE1":"1 46682U 20073N   21351.01974931 -.00000218  00000-0  42666-5 0  9995","EPHEMERIS_TYPE":"0","LAUNCH_DATE":"2020-10-18","PERIOD":"95.593","TIME_SYSTEM":"UTC","APOAPSIS":"548.459","RCS_SIZE":"LARGE","CENTER_NAME":"EARTH","GP_ID":"191838298","ECCENTRICITY":"0.00017540","EPOCH":"2021-12-17T00:28:26.340384","ARG_OF_PERICENTER":"51.7581","PERIAPSIS":"546.030","SEMIMAJOR_AXIS":"6925.380","RA_OF_ASC_NODE":"346.4194","OBJECT_TYPE":"PAYLOAD","NORAD_CAT_ID":"46682","MEAN_ELEMENT_THEORY":"SGP4","MEAN_MOTION_DOT":"-0.00000218","MEAN_MOTION_DDOT":"0.0000000000000","SITE":"AFETR","MEAN_MOTION":"15.06389876","DECAY_DATE":null,"BSTAR":"0.00000426660000","OBJECT_NAME":"STARLINK-1776","ELEMENT_SET_NO":"999","REV_AT_EPOCH":"6484","MEAN_ANOMALY":"308.3566","INCLINATION":"53.0544","COUNTRY_CODE":"US","OBJECT_ID":"2020-073N","CLASSIFICATION_TYPE":"U","REF_FRAME":"TEME","TLE_LINE2":"2 46682  53.0544 346.4194 0001754  51.7581 308.3566 15.06389876 64840"}];
